{
    "coverage": {
        "country": "us",
        "state": "va",
        "geometry": {
            "type": "Point",
            "coordinates": [
                -78.5,
                37.8
            ]
        }
    },
    "data": "http://gismaps.vita.virginia.gov/arcgis/rest/services/VA_Base_layers/VBMP_RCL/MapServer",
    "website": "http://vgin.maps.arcgis.com/home/index.html",
    "type": "esri",
    "conform": {
        "type": "geojson",
        "name": [
            "STREET_PREFIX",
            "STREET_NAME",
            "STREET_TYPE",
            "STREET_SUFFIX",
            "STREET_POSTMODIFIER"
        ],
        "oneway": "ONE_WAY",
        "addr:from:left": "LEFT_FROM_ADDRESS",
        "addr:from:right": "RIGHT_FROM_ADDRESS",
        "addr:to:left": "LEFT_TO_ADDRESS",
        "addr:to:right": "RIGHT_TO_ADDRESS",
        "city:left": "",
        "city:right": "",
        "postcode:left": "ZIP_LEFT",
        "postcode:right": "ZIP_RIGHT",
        "maxspeed": "SPEED"
    }
}
